NORAD_CAT_ID,OBJECT_NAME,OBJECT_TYPE,EPOCH,MEAN_MOTION,ECCENTRICITY,INCLINATION,RA_OF_ASC_NODE,ARG_OF_PERICENTER,MEAN_ANOMALY,BSTAR,MEAN_MOTION_DOT,MEAN_MOTION_DDOT,TLE_LINE0,TLE_LINE1,TLE_LINE2,SEMIMAJOR_AXIS,PERIOD,APOGEE,PERIGEE,DECAYED
50161.0,STARLINK-3304,PAYLOAD,2023-01-13 07:41:36,15.088362,0.0002290999999999,53.2171,27.8204,34.723,325.3912,0.00010826,1.435e-05,0.0,0 STARLINK-3304,1 50161U 21125F   23013.32055799  .00001435  00000-0  10826-3 0  9996,2 50161  53.2171  27.8204 0002291  34.7230 325.3912 15.08836200 62635,6917.892,95.438,541.342,538.172,0.0
50161.0,STARLINK-3304,PAYLOAD,2023-01-13 17:13:55,15.08838156,0.0002124,53.2171,26.0362,40.4878,319.6272,7.6367e-05,9.27e-06,0.0,0 STARLINK-3304,1 50161U 21125F   23013.71799895  .00000927  00000-0  76367-4 0  9999,2 50161  53.2171  26.0362 0002124  40.4878 319.6272 15.08838156 62691,6917.886,95.438,541.22,538.2819999999999,0.0
50161.0,STARLINK-3304,PAYLOAD,2023-01-14 07:32:23,15.08850271,0.0002195,53.2169,23.3624,44.746,315.3709,0.00049828,7.653e-05,0.0,0 STARLINK-3304,1 50161U 21125F   23014.31415965  .00007653  00000-0  49828-3 0  9993,2 50161  53.2169  23.3624 0002195  44.7460 315.3709 15.08850271 62309,6917.849,95.437,541.232,538.196,0.0
50161.0,STARLINK-3304,PAYLOAD,2023-01-14 23:26:15,15.08841345,0.0001995,53.2174,20.3925,56.7699,303.3484,0.00019814,2.867e-05,0.0,0 STARLINK-3304,1 50161U 21125F   23014.97656397  .00002867  00000-0  19814-3 0  9995,2 50161  53.2174  20.3925 0001995  56.7699 303.3484 15.08841345 62400,6917.876,95.437,541.121,538.361,0.0
50161.0,STARLINK-3304,PAYLOAD,2023-01-15 02:37:01,15.08829048,0.000199,53.216,19.7958,52.4114,307.7059,-6.4505e-05,-1.314e-05,0.0,0 STARLINK-3304,1 50161U 21125F   23015.10904812 -.00001314  00000-0 -64505-4 0  9995,2 50161  53.2160  19.7958 0001990  52.4114 307.7059 15.08829048 62427,6917.914000000001,95.438,541.156,538.4019999999999,0.0
50161.0,STARLINK-3304,PAYLOAD,2023-01-15 08:58:34,15.08838689,0.0002184,53.2146,18.6035,58.5271,301.5935,0.00013906,1.926e-05,0.0,0 STARLINK-3304,1 50161U 21125F   23015.37400532  .00001926  00000-0  13906-3 0  9999,2 50161  53.2146  18.6035 0002184  58.5271 301.5935 15.08838689 62462,6917.884,95.438,541.26,538.239,0.0
50161.0,STARLINK-3304,PAYLOAD,2023-01-15 18:30:52,15.08840349,0.0001996999999999,53.2165,16.8198,56.767,303.3513,9.9144e-05,1.29e-05,0.0,0 STARLINK-3304,1 50161U 21125F   23015.77144414  .00001290  00000-0  99144-4 0  9990,2 50161  53.2165  16.8198 0001997  56.7670 303.3513 15.08840349 63006,6917.879,95.438,541.126,538.363,0.0
50161.0,STARLINK-3304,PAYLOAD,2023-01-16 07:13:56,15.08864603,0.0002070999999999,53.2166,14.4411,56.7455,303.3735,0.00028023,4.177e-05,0.0,0 STARLINK-3304,1 50161U 21125F   23016.30135159  .00004177  00000-0  28023-3 0  9990,2 50161  53.2166  14.4411 0002071  56.7455 303.3735 15.08864603 62604,6917.805,95.436,541.1030000000001,538.238,0.0
50161.0,STARLINK-3304,PAYLOAD,2023-01-16 19:57:03,15.08820262,0.0001924,53.2173,12.0627,74.7732,285.3473,-0.0001986999999999,-3.447e-05,0.0,0 STARLINK-3304,1 50161U 21125F   23016.83129241 -.00003447  00000-0 -19870-3 0  9994,2 50161  53.2173  12.0627 0001924  74.7732 285.3473 15.08820262 62688,6917.941,95.439,541.137,538.475,0.0
50161.0,STARLINK-3304,PAYLOAD,2023-01-17 05:29:22,15.08832353,0.0001781999999999,53.2163,10.2772,76.1342,283.9848,-0.00012042,-2.204e-05,0.0,0 STARLINK-3304,1 50161U 21125F   23017.22872701 -.00002204  00000-0 -12042-3 0  9998,2 50161  53.2163  10.2772 0001782  76.1342 283.9848 15.08832353 62744,6917.904,95.438,541.002,538.536,0.0
50161.0,STARLINK-3304,PAYLOAD,2023-01-17 18:12:27,15.08834731,0.0001685,53.2162,7.8975,90.7451,269.3734,9.8917e-05,1.286e-05,0.0,0 STARLINK-3304,1 50161U 21125F   23017.75864891  .00001286  00000-0  98917-4 0  9990,2 50161  53.2162   7.8975 0001685  90.7451 269.3734 15.08834731 63302,6917.896,95.438,540.927,538.596,0.0
50161.0,STARLINK-3304,PAYLOAD,2023-01-18 08:30:55,15.08866654,0.0001759,53.2159,5.2216,95.7434,264.3758,0.0016157,0.00025538,0.0,0 STARLINK-3304,1 50161U 21125F   23018.35480801  .00025538  00000-0  16157-2 0  9992,2 50161  53.2159   5.2216 0001759  95.7434 264.3758 15.08866654 62912,6917.799,95.436,540.881,538.447,0.0
50161.0,STARLINK-3304,PAYLOAD,2023-01-18 16:27:51,15.08854592,0.0001901,53.217,3.7349,92.6199,267.5011,0.001037,0.00016261,0.0,0 STARLINK-3304,1 50161U 21125F   23018.68601010  .00016261  00000-0  10370-2 0  9999,2 50161  53.2170   3.7349 0001901  92.6199 267.5011 15.08854592 62968,6917.835999999999,95.437,541.016,538.386,0.0
50161.0,STARLINK-3304,PAYLOAD,2023-01-19 08:21:41,15.08878845,0.0001684,53.2161,0.7609999999999999,96.1247,263.9937,0.0014682,0.00023181,0.0,0 STARLINK-3304,1 50161U 21125F   23019.34839698  .00023181  00000-0  14682-2 0  9997,2 50161  53.2161   0.7610 0001684  96.1247 263.9937 15.08878845 63546,6917.762,95.435,540.7919999999999,538.462,0.0
50161.0,STARLINK-3304,PAYLOAD,2023-01-19 22:40:10,15.08839948,0.0001367,53.2165,358.0845,113.387,246.7266,0.0012014,0.00018884,0.0,0 STARLINK-3304,1 50161U 21125F   23019.94456570  .00018884  00000-0  12014-2 0  9998,2 50161  53.2165 358.0845 0001367 113.3870 246.7266 15.08839948 63153,6917.880999999999,95.438,540.691,538.8,0.0
50161.0,STARLINK-3304,PAYLOAD,2023-01-20 08:12:29,15.08830535,0.0001357,53.2174,356.2991,108.9748,251.1391,0.0010812,0.00016957,0.0,0 STARLINK-3304,1 50161U 21125F   23020.34201013  .00016957  00000-0  10812-2 0  9997,2 50161  53.2174 356.2991 0001357 108.9748 251.1391 15.08830535 63217,6917.909000000001,95.438,540.7130000000001,538.836,0.0
50161.0,STARLINK-3304,PAYLOAD,2023-01-20 22:30:58,15.08837038,0.0001349,53.2183,353.6228,88.7447,271.37,0.00074594,0.00011603,0.0,0 STARLINK-3304,1 50161U 21125F   23020.93817626  .00011603  00000-0  74594-3 0  9996,2 50161  53.2183 353.6228 0001349  88.7447 271.3700 15.08837038 63306,6917.889,95.438,540.688,538.821,0.0
50161.0,STARLINK-3304,PAYLOAD,2023-01-21 06:27:53,15.08864109,0.0001585999999999,53.2167,352.1376,82.2681,277.8492,0.0014246999999999,0.00022474,0.0,0 STARLINK-3304,1 50161U 21125F   23021.26937209  .00022474  00000-0  14247-2 0  9999,2 50161  53.2167 352.1376 0001586  82.2681 277.8492 15.08864109 63351,6917.807,95.436,540.769,538.575,0.0
50161.0,STARLINK-3304,PAYLOAD,2023-01-22 06:18:39,15.0888059,0.0001415,53.2168,347.6764,89.6517,270.4637,0.0012727,0.00020048,0.0,0 STARLINK-3304,1 50161U 21125F   23022.26296046  .00020048  00000-0  12727-2 0  9993,2 50161  53.2168 347.6764 0001415  89.6517 270.4637 15.08880590 63501,6917.755999999999,95.435,540.6,538.6419999999999,0.0
50161.0,STARLINK-3304,PAYLOAD,2023-01-22 14:15:36,15.08840351,0.0002887999999999,53.2171,346.1906,73.6042,286.5267,0.0018314,0.0002898,0.0,0 STARLINK-3304,1 50161U 21125F   23022.59416716  .00028980  00000-0  18314-2 0  9998,2 50161  53.2171 346.1906 0002888  73.6042 286.5267 15.08840351 63551,6917.879,95.438,541.742,537.746,0.0
50161.0,STARLINK-3304,PAYLOAD,2023-01-23 06:09:28,15.08825941,0.0001393,53.2171,343.217,74.7019,285.4127,0.002098,0.00033247,0.0,0 STARLINK-3304,1 50161U 21125F   23023.25657638  .00033247  00000-0  20980-2 0  9996,2 50161  53.2171 343.2170 0001393  74.7019 285.4127 15.08825941 63650,6917.923000000001,95.438,540.752,538.825,0.0
50161.0,STARLINK-3304,PAYLOAD,2023-01-24 06:00:15,15.08865621,0.000148,53.2161,338.7562,82.8776,277.2385,0.001901,0.00030117,0.0,0 STARLINK-3304,1 50161U 21125F   23024.25017857  .00030117  00000-0  19010-2 0  9995,2 50161  53.2161 338.7562 0001480  82.8776 277.2385 15.08865621 63801,6917.802,95.436,540.691,538.643,0.0
50161.0,STARLINK-3304,PAYLOAD,2023-01-25 05:51:02,15.08852014,0.0001149999999999,53.2159,334.2961,87.116,272.9964,0.00062655,9.701e-05,0.0,0 STARLINK-3304,1 50161U 21125F   23025.24377831  .00009701  00000-0  62655-3 0  9995,2 50161  53.2159 334.2961 0001150  87.1160 272.9964 15.08852014 63954,6917.844,95.437,540.504,538.913,0.0
50161.0,STARLINK-3304,PAYLOAD,2023-01-25 13:47:58,15.08839844,0.0001597,53.2169,332.8111,67.5199,292.5962,0.00038544,5.852e-05,0.0,0 STARLINK-3304,1 50161U 21125F   23025.57498334  .00005852  00000-0  38544-3 0  9996,2 50161  53.2169 332.8111 0001597  67.5199 292.5962 15.08839844 64004,6917.880999999999,95.438,540.851,538.641,0.0
50161.0,STARLINK-3304,PAYLOAD,2023-01-26 02:31:03,15.08841851,0.0001227,53.2173,330.427,94.5262,265.5871,0.00036957,5.599e-05,0.0,0 STARLINK-3304,1 50161U 21125F   23026.10490241  .00005599  00000-0  36957-3 0  9999,2 50161  53.2173 330.4270 0001227  94.5262 265.5871 15.08841851 64561,6917.875,95.437,540.589,538.891,0.0
50161.0,STARLINK-3304,PAYLOAD,2023-01-26 23:11:04,15.08846843,0.0001228,53.2165,326.5611,91.6143,268.499,0.000361,5.463e-05,0.0,0 STARLINK-3304,1 50161U 21125F   23026.96602148  .00005463  00000-0  36100-3 0  9994,2 50161  53.2165 326.5611 0001228  91.6143 268.4990 15.08846843 64216,6917.859,95.437,540.5740000000001,538.875,0.0
50161.0,STARLINK-3304,PAYLOAD,2023-01-27 05:32:36,15.0885119,0.0001261,53.2171,325.3712,95.0951,265.0186,0.00036001,5.448e-05,0.0,0 STARLINK-3304,1 50161U 21125F   23027.23097895  .00005448  00000-0  36001-3 0  9995,2 50161  53.2171 325.3712 0001261  95.0951 265.0186 15.08851190 64732,6917.846,95.437,540.5840000000001,538.839,0.0
50161.0,STARLINK-3304,PAYLOAD,2023-01-28 05:23:23,15.08845639,0.0001204,53.2167,320.9134,96.2964,263.8165,0.00017669,2.526e-05,0.0,0 STARLINK-3304,1 50161U 21125F   23028.22458021  .00002526  00000-0  17669-3 0  9990,2 50161  53.2167 320.9134 0001204  96.2964 263.8165 15.08845639 64408,6917.863,95.437,540.561,538.895,0.0
50161.0,STARLINK-3304,PAYLOAD,2023-01-29 19:32:39,15.08839938,0.0001538,53.2165,313.7771,93.5774,266.5394,4.6583e-05,4.53e-06,0.0,0 STARLINK-3304,1 50161U 21125F   23029.81434173  .00000453  00000-0  46583-4 0  9993,2 50161  53.2165 313.7771 0001538  93.5774 266.5394 15.08839938 64647,6917.881,95.438,540.81,538.682,0.0
